INTELSAT 35E (IS-35E)   
1 42818U 17041A   24230.46924690 -.00000238  00000+0  00000+0 0  9999
2 42818   0.0131  94.8192 0001480  53.4349 312.5056  1.00272179 26115
KANOPUS-V-IK            
1 42825U 17042A   24233.80919197  .00007890  00000+0  34351-3 0  9995
2 42825  97.3907 140.4881 0002274  97.2038 262.9457 15.22490623394115
NORSAT 1                
1 42826U 17042B   24233.58666307  .00013823  00000+0  11043-2 0  9998
2 42826  97.3890  53.1110 0009862 194.8526 165.2410 15.00318973386914
NORSAT 2                
1 42828U 17042D   24233.48067689  .00015192  00000+0  11364-2 0  9994
2 42828  97.3784  56.5461 0014020 192.1508 167.9382 15.02764649387079
TECHNOSAT               
1 42829U 17042E   24233.82168547  .00008181  00000+0  70776-3 0  9991
2 42829  97.3857  51.3052 0011855 212.8306 147.2182 14.97354417386843
FLYING LAPTOP           
1 42831U 17042G   24233.82185548  .00004884  00000+0  44371-3 0  9992
2 42831  97.3883  51.0482 0011972 214.9698 145.0739 14.95630708386792
WNISAT 1R               
1 42835U 17042L   24233.57098262  .00006225  00000+0  56089-3 0  9994
2 42835  97.3861  50.6809 0011240 211.1599 148.8958 14.95864662386788
LEMUR-2-GREENBERG       
1 42837U 17042N   24233.46355034  .00020075  00000+0  13665-2 0  9998
2 42837  97.3639  59.2059 0014956 169.2437 190.9114 15.06233222387313
LEMUR-2-ANDIS           
1 42838U 17042P   24233.44399664  .00020484  00000+0  14086-2 0  9996
2 42838  97.3633  58.8945 0016392 174.5835 185.5573 15.05832844387306
LEMUR-2-MONSON          
1 42839U 17042Q   24233.49601570  .00018213  00000+0  12886-2 0  9997
2 42839  97.3950  59.0696 0011440 153.3376 206.8441 15.04849825387250
LEMUR-2-FURIAUS         
1 42840U 17042R   24233.45527612  .00019268  00000+0  13626-2 0  9993
2 42840  97.3665  58.8626 0012404 218.8415 141.1922 15.04845977387245
LEMUR-2-PETERG          
1 42841U 17042S   24233.50884637  .00021310  00000+0  14764-2 0  9998
2 42841  97.3931  60.9789 0007099 146.4630 213.7048 15.05634904387337
LEMUR-2-DEMBITZ         
1 42842U 17042T   24233.50874271  .00018442  00000+0  12916-2 0  9991
2 42842  97.3801  60.6182 0011581 173.3252 186.8132 15.05227857387359
NANOACE                 
1 42844U 17042V   24233.50954198  .00017038  00000+0  12318-2 0  9996
2 42844  97.3562  57.9929 0007266 160.1272 200.0239 15.04084107387292
LEMUR-2-ZACHARY         
1 42845U 17042W   24233.52296690  .00024151  00000+0  14872-2 0  9996
2 42845  97.3761  61.6033 0007362 208.1554 151.9278 15.09957591387563
CORVUS BC2              
1 42846U 17042X   24233.44681797  .00008293  00000+0  69759-3 0  9998
2 42846  97.3743  55.0010 0008072 191.3394 168.7648 14.98470571387067
CORVUS BC1              
1 42847U 17042Y   24233.46799074  .00009094  00000+0  76109-3 0  9996
2 42847  97.3766  55.4326 0007314 185.9429 174.1709 14.98644263387085
VENUS                   
1 42901U 17044B   24233.87041388  .00010551  00000+0  81507-3 0  9990
2 42901  97.3699 289.7270 0003683 111.8667 248.2951 15.01697343380591
COSMOS 2520             
1 42907U 17046A   24233.48970115  .00000130  00000+0  00000+0 0  9991
2 42907   0.0252 109.7678 0000729  69.1975  11.5975  1.00268601 25724
TDRS 13                 
1 42915U 17047A   24233.84634936 -.00000104  00000+0  00000+0 0  9991
2 42915   3.5927 345.9986 0016842 125.4154 151.5043  1.00271313 25707
QZS-3 (MICHIBIKI-3)     
1 42917U 17048A   24233.89652117 -.00000355  00000+0  00000+0 0  9998
2 42917   0.0729 219.4261 0001923 286.6105 273.4425  1.00273494 25690
FORMOSAT-5              
1 42920U 17049A   24233.53516428  .00000844  00000+0  22606-3 0  9990
2 42920  98.2881 310.3219 0011536 333.2434  26.8164 14.50664200370153
ORS-5 SENSORSAT         
1 42921U 17050A   24233.26501463  .00006622  00000+0  50253-3 0  9995
2 42921   0.0495  53.5834 0011312 240.9030  65.3957 14.96117099381084
AMAZONAS 5              
1 42934U 17053A   24221.49051123 -.00000280  00000+0  00000+0 0  9993
2 42934   0.0484 302.2581 0000828 208.2310 282.5497  1.00272000 25247
COSMOS 2522 [GLONASS-M] 
1 42939U 17055A   24233.24439778  .00000060  00000+0  00000+0 0  9997
2 42939  64.0839 214.5761 0010134 241.7542 118.1326  2.13101868 53784
ASIASAT 9               
1 42942U 17057A   24233.54294977 -.00000367  00000+0  00000+0 0  9997
2 42942   0.0170 110.0767 0002275  38.4506 138.3888  1.00270895 25182
YAOGAN-30 02A           
1 42945U 17058A   24233.80482033  .00007714  00000+0  67634-3 0  9994
2 42945  34.9971 108.5485 0002097  79.1115 280.9827 14.96000699375917
YAOGAN-30 02B           
1 42946U 17058B   24233.82772189  .00007548  00000+0  66182-3 0  9993
2 42946  34.9972 108.7146 0003013 286.1990  73.8384 14.95996658375909
YAOGAN-30 02C           
1 42947U 17058C   24233.79322376  .00008542  00000+0  73637-3 0  9997
2 42947  34.9969 107.4660 0004864 156.7650 203.3276 14.96631333375900
INTELSAT 37E (IS-37E)   
1 42950U 17059A   24233.41855001 -.00000148  00000+0  00000+0 0  9992
2 42950   0.0160 106.6875 0003208  57.3718 297.8446  1.00270260 25393
BSAT-4A                 
1 42951U 17059B   24231.98590928 -.00000355  00000+0  00000+0 0  9997
2 42951   0.0478 306.5284 0002458 158.7221 327.3187  1.00268783 25109
