OBJECT_NAME,OBJECT_ID,EPOCH,MEAN_MOTION,ECCENTRICITY,INCLINATION,RA_OF_ASC_NODE,ARG_OF_PERICENTER,MEAN_ANOMALY,EPHEMERIS_TYPE,CLASSIFICATION_TYPE,NORAD_CAT_ID,ELEMENT_SET_NO,REV_AT_EPOCH,BSTAR,MEAN_MOTION_DOT,MEAN_MOTION_DDOT
INTELSAT 35E (IS-35E),2017-041A,2024-08-17T11:15:42.932160,1.00272179,.000148,0.0131,94.8192,53.4349,312.5056,0,U,42818,999,2611,0,-.238E-5,0
KANOPUS-V-IK,2017-042A,2024-08-20T19:25:14.186208,15.22490623,.0002274,97.3907,140.4881,97.2038,262.9457,0,U,42825,999,39411,.34351E-3,.789E-4,0
NORSAT 1,2017-042B,2024-08-20T14:04:47.689248,15.00318973,.0009862,97.3890,53.1110,194.8526,165.2410,0,U,42826,999,38691,.11043E-2,.13823E-3,0
NORSAT 2,2017-042D,2024-08-20T11:32:10.483296,15.02764649,.001402,97.3784,56.5461,192.1508,167.9382,0,U,42828,999,38707,.11364E-2,.15192E-3,0
TECHNOSAT,2017-042E,2024-08-20T19:43:13.624608,14.97354417,.0011855,97.3857,51.3052,212.8306,147.2182,0,U,42829,999,38684,.70776E-3,.8181E-4,0
FLYING LAPTOP,2017-042G,2024-08-20T19:43:28.313472,14.95630708,.0011972,97.3883,51.0482,214.9698,145.0739,0,U,42831,999,38679,.44371E-3,.4884E-4,0
WNISAT 1R,2017-042L,2024-08-20T13:42:12.898368,14.95864662,.001124,97.3861,50.6809,211.1599,148.8958,0,U,42835,999,38678,.56089E-3,.6225E-4,0
LEMUR-2-GREENBERG,2017-042N,2024-08-20T11:07:30.749376,15.06233222,.0014956,97.3639,59.2059,169.2437,190.9114,0,U,42837,999,38731,.13665E-2,.20075E-3,0
LEMUR-2-ANDIS,2017-042P,2024-08-20T10:39:21.309696,15.05832844,.0016392,97.3633,58.8945,174.5835,185.5573,0,U,42838,999,38730,.14086E-2,.20484E-3,0
LEMUR-2-MONSON,2017-042Q,2024-08-20T11:54:15.756480,15.04849825,.001144,97.3950,59.0696,153.3376,206.8441,0,U,42839,999,38725,.12886E-2,.18213E-3,0
LEMUR-2-FURIAUS,2017-042R,2024-08-20T10:55:35.856768,15.04845977,.0012404,97.3665,58.8626,218.8415,141.1922,0,U,42840,999,38724,.13626E-2,.19268E-3,0
LEMUR-2-PETERG,2017-042S,2024-08-20T12:12:44.326368,15.05634904,.0007099,97.3931,60.9789,146.4630,213.7048,0,U,42841,999,38733,.14764E-2,.2131E-3,0
LEMUR-2-DEMBITZ,2017-042T,2024-08-20T12:12:35.370144,15.05227857,.0011581,97.3801,60.6182,173.3252,186.8132,0,U,42842,999,38735,.12916E-2,.18442E-3,0
NANOACE,2017-042V,2024-08-20T12:13:44.427072,15.04084107,.0007266,97.3562,57.9929,160.1272,200.0239,0,U,42844,999,38729,.12318E-2,.17038E-3,0
LEMUR-2-ZACHARY,2017-042W,2024-08-20T12:33:04.340160,15.09957591,.0007362,97.3761,61.6033,208.1554,151.9278,0,U,42845,999,38756,.14872E-2,.24151E-3,0
CORVUS BC2,2017-042X,2024-08-20T10:43:25.072608,14.98470571,.0008072,97.3743,55.0010,191.3394,168.7648,0,U,42846,999,38706,.69759E-3,.8293E-4,0
CORVUS BC1,2017-042Y,2024-08-20T11:13:54.399936,14.98644263,.0007314,97.3766,55.4326,185.9429,174.1709,0,U,42847,999,38708,.76109E-3,.9094E-4,0
VENUS,2017-044B,2024-08-20T20:53:23.759232,15.01697343,.0003683,97.3699,289.7270,111.8667,248.2951,0,U,42901,999,38059,.81507E-3,.10551E-3,0
COSMOS 2520,2017-046A,2024-08-20T11:45:10.179360,1.00268601,.0000729,0.0252,109.7678,69.1975,11.5975,0,U,42907,999,2572,0,.13E-5,0
TDRS 13,2017-047A,2024-08-20T20:18:44.584704,1.00271313,.0016842,3.5927,345.9986,125.4154,151.5043,0,U,42915,999,2570,0,-.104E-5,0
QZS-3 (MICHIBIKI-3),2017-048A,2024-08-20T21:30:59.429088,1.00273494,.0001923,0.0729,219.4261,286.6105,273.4425,0,U,42917,999,2569,0,-.355E-5,0
FORMOSAT-5,2017-049A,2024-08-20T12:50:38.193792,14.50664200,.0011536,98.2881,310.3219,333.2434,26.8164,0,U,42920,999,37015,.22606E-3,.844E-5,0
ORS-5 SENSORSAT,2017-050A,2024-08-20T06:21:37.264032,14.96117099,.0011312,0.0495,53.5834,240.9030,65.3957,0,U,42921,999,38108,.50253E-3,.6622E-4,0
AMAZONAS 5,2017-053A,2024-08-08T11:46:20.170272,1.00272000,.0000828,0.0484,302.2581,208.2310,282.5497,0,U,42934,999,2524,0,-.28E-5,0
COSMOS 2522 [GLONASS-M],2017-055A,2024-08-20T05:51:55.968192,2.13101868,.0010134,64.0839,214.5761,241.7542,118.1326,0,U,42939,999,5378,0,.6E-6,0
ASIASAT 9,2017-057A,2024-08-20T13:01:50.860128,1.00270895,.0002275,0.0170,110.0767,38.4506,138.3888,0,U,42942,999,2518,0,-.367E-5,0
YAOGAN-30 02A,2017-058A,2024-08-20T19:18:56.476512,14.96000699,.0002097,34.9971,108.5485,79.1115,280.9827,0,U,42945,999,37591,.67634E-3,.7714E-4,0
YAOGAN-30 02B,2017-058B,2024-08-20T19:51:55.171296,14.95996658,.0003013,34.9972,108.7146,286.1990,73.8384,0,U,42946,999,37590,.66182E-3,.7548E-4,0
YAOGAN-30 02C,2017-058C,2024-08-20T19:02:14.532864,14.96631333,.0004864,34.9969,107.4660,156.7650,203.3276,0,U,42947,999,37590,.73637E-3,.8542E-4,0
INTELSAT 37E (IS-37E),2017-059A,2024-08-20T10:02:42.720864,1.00270260,.0003208,0.0160,106.6875,57.3718,297.8446,0,U,42950,999,2539,0,-.148E-5,0
BSAT-4A,2017-059B,2024-08-18T23:39:42.561792,1.00268783,.0002458,0.0478,306.5284,158.7221,327.3187,0,U,42951,999,2510,0,-.355E-5,0
